NORAD_CAT_ID,OBJECT_NAME,OBJECT_TYPE,EPOCH,MEAN_MOTION,ECCENTRICITY,INCLINATION,RA_OF_ASC_NODE,ARG_OF_PERICENTER,MEAN_ANOMALY,BSTAR,MEAN_MOTION_DOT,MEAN_MOTION_DDOT,TLE_LINE0,TLE_LINE1,TLE_LINE2,SEMIMAJOR_AXIS,PERIOD,APOGEE,PERIGEE,DECAYED
55427.0,STARLINK-5073,PAYLOAD,2023-02-07 16:00:01,15.71171028,0.0003425,70.0079,70.0887,274.6446,298.5915,-0.011027,-0.01255098,0.0,0 STARLINK-5073,1 55427U 23014AN  23038.66668981 -.01255098  00000-0 -11027-1 0  9993,2 55427  70.0079  70.0887 0003425 274.6446 298.5915 15.71171028  1301,6733.686,91.651,357.857,353.245,0.0
55427.0,STARLINK-5073,PAYLOAD,2023-02-07 22:00:00,15.70234481,0.0003548,70.0079,69.3853,271.6011,274.9214,-0.0036411,-0.00422183,0.0,0 STARLINK-5073,1 55427U 23014AN  23038.91667824 -.00422183  00000-0 -36411-2 0  9991,2 55427  70.0079  69.3853 0003548 271.6011 274.9214 15.70234481  1331,6736.363,91.706,360.618,355.838,0.0
55427.0,STARLINK-5073,PAYLOAD,2023-02-08 06:00:00,15.69931405,0.0003368,70.0076,68.4479,273.0045,357.0367,-0.00028735,-0.00034632,0.0,0 STARLINK-5073,1 55427U 23014AN  23039.25001157 -.00034632  00000-0 -28735-3 0  9999,2 55427  70.0076  68.4479 0003368 273.0045 357.0367 15.69931405  1391,6737.23,91.724,361.364,356.826,0.0
55427.0,STARLINK-5073,PAYLOAD,2023-02-08 14:00:01,15.6994169,0.0003328,70.0066,67.5108,279.0325,74.3221,-0.00012812,-0.000156,0.0,0 STARLINK-5073,1 55427U 23014AN  23039.58334491 -.00015600  00000-0 -12812-3 0  9998,2 55427  70.0066  67.5108 0003328 279.0325  74.3221 15.69941690  1308,6737.201,91.723,361.308,356.824,0.0
55427.0,STARLINK-5073,PAYLOAD,2023-02-08 22:00:00,15.69894928,0.0003489,70.0073,66.5741,265.8254,171.0364,-0.00083731,-0.0009959,0.0,0 STARLINK-5073,1 55427U 23014AN  23039.91667824 -.00099590  00000-0 -83731-3 0  9992,2 55427  70.0073  66.5741 0003489 265.8254 171.0364 15.69894928  1494,6737.335,91.726,361.55,356.849,0.0
55427.0,STARLINK-5073,PAYLOAD,2023-02-09 06:00:00,15.69927196,0.0003541,70.0061,65.6376,264.6536,255.4082,-0.00026383,-0.00031821,0.0,0 STARLINK-5073,1 55427U 23014AN  23040.25001157 -.00031821  00000-0 -26383-3 0  9995,2 55427  70.0061  65.6376 0003541 264.6536 255.4082 15.69927196  1548,6737.242,91.724,361.493,356.722,0.0
55427.0,STARLINK-5073,PAYLOAD,2023-02-09 12:00:00,15.69894743,0.000347,70.0044,64.9348,268.0995,224.4647,0.00026067,0.0003121,0.0,0 STARLINK-5073,1 55427U 23014AN  23040.50001157  .00031210  00000-0  26067-3 0  9992,2 55427  70.0044  64.9348 0003470 268.0995 224.4647 15.69894743  1306,6737.335,91.726,361.538,356.862,0.0
55427.0,STARLINK-5073,PAYLOAD,2023-02-09 20:00:01,15.69882402,0.000338,70.0025,63.9976,263.39,312.5026,0.00056963,0.00068725,0.0,0 STARLINK-5073,1 55427U 23014AN  23040.83334491  .00068725  00000-0  56963-3 0  9997,2 55427  70.0025  63.9976 0003380 263.3900 312.5026 15.69882402  1641,6737.37,91.727,361.513,356.958,0.0
55427.0,STARLINK-5073,PAYLOAD,2023-02-09 22:00:00,15.69869632,0.0003391,70.002,63.7635,261.6766,65.0428,0.00099669,0.00121102,0.0,0 STARLINK-5073,1 55427U 23014AN  23040.91667824  .00121102  00000-0  99669-3 0  9994,2 55427  70.0020  63.7635 0003391 261.6766  65.0428 15.69869632  1308,6737.407,91.727,361.557,356.987,0.0
55427.0,STARLINK-5073,PAYLOAD,2023-02-10 02:00:01,15.69951269,0.0003338,70.0016,63.295,261.8058,286.5539,-0.00032254,-0.0003886,0.0,0 STARLINK-5073,1 55427U 23014AN  23041.08334491 -.00038860  00000-0 -32254-3 0  9991,2 55427  70.0016  63.2950 0003338 261.8058 286.5539 15.69951269  1676,6737.173,91.723,361.287,356.79,0.0
55427.0,STARLINK-5073,PAYLOAD,2023-02-10 04:00:00,15.69958026,0.0003371,70.0012,63.0606,263.8272,35.3693,-0.00053752,-0.00064442,0.0,0 STARLINK-5073,1 55427U 23014AN  23041.16667824 -.00064442  00000-0 -53752-3 0  9990,2 55427  70.0012  63.0606 0003371 263.8272  35.3693 15.69958026  1304,6737.154,91.722,361.29,356.748,0.0
55427.0,STARLINK-5073,PAYLOAD,2023-02-10 16:00:00,15.69947393,0.0003161,69.9995,61.6548,262.942,341.2897,-0.00070526,-0.00084247,0.0,0 STARLINK-5073,1 55427U 23014AN  23041.66667824 -.00084247  00000-0 -70526-3 0  9998,2 55427  69.9995  61.6548 0003161 262.9420 341.2897 15.69947393  1773,6737.185,91.723,361.179,356.92,0.0
55427.0,STARLINK-5073,PAYLOAD,2023-02-10 22:00:00,15.69831713,0.0003289,69.9997,60.9521,255.6833,321.0543,0.0013508,0.00164806,0.0,0 STARLINK-5073,1 55427U 23014AN  23041.91667824  .00164806  00000-0  13508-2 0  9990,2 55427  69.9997  60.9521 0003289 255.6833 321.0543 15.69831713  1307,6737.515,91.73,361.596,357.165,0.0
55427.0,STARLINK-5073,PAYLOAD,2023-02-11 00:00:00,15.69882254,0.0003258,69.9999,60.718,255.0094,72.5342,0.00079783,0.00096662,0.0,0 STARLINK-5073,1 55427U 23014AN  23042.00001157  .00096662  00000-0  79783-3 0  9994,2 55427  69.9999  60.7180 0003258 255.0094  72.5342 15.69882254  1825,6737.371,91.727,361.431,357.041,0.0
55427.0,STARLINK-5073,PAYLOAD,2023-02-11 18:29:20,15.69926742,0.0001694,70.002,58.5533,271.223,88.8772,9.3235e-05,0.00011012,0.0,0 STARLINK-5073,1 55427U 23014AN  23042.77037686  .00011012  00000-0  93235-4 0  9999,2 55427  70.0020  58.5533 0001694 271.2230  88.8772 15.69926742  1945,6737.244,91.724,360.25,357.967,0.0
55427.0,STARLINK-5073,PAYLOAD,2023-02-12 22:00:00,15.69872494,0.0003073,69.9998,55.329,262.5551,94.187,0.00093282,0.00113229,0.0,0 STARLINK-5073,1 55427U 23014AN  23043.91667824  .00113229  00000-0  93282-3 0  9993,2 55427  69.9998  55.3290 0003073 262.5551  94.1870 15.69872494  2127,6737.399,91.727,361.334,357.193,0.0
55427.0,STARLINK-5073,PAYLOAD,2023-02-13 06:00:00,15.69957113,0.0003269,70.0,54.392,267.527,172.536,-0.00074638,-0.00089133,0.0,0 STARLINK-5073,1 55427U 23014AN  23044.25001157 -.00089133  00000-0 -74638-3 0  9994,2 55427  70.0000  54.3920 0003269 267.5270 172.5360 15.69957113  2175,6737.157,91.722,361.224,356.819,0.0
55427.0,STARLINK-5073,PAYLOAD,2023-02-13 14:00:01,15.69893645,0.0003403,69.9995,53.4548,270.1514,253.2541,0.0002049,0.00024466,0.0,0 STARLINK-5073,1 55427U 23014AN  23044.58334491  .00024466  00000-0  20490-3 0  9993,2 55427  69.9995  53.4548 0003403 270.1514 253.2541 15.69893645  1303,6737.338,91.726,361.496,356.911,0.0
55427.0,STARLINK-5073,PAYLOAD,2023-02-13 22:00:00,15.69915572,0.0003519,69.9996,52.5175,265.0205,341.6989,0.00040636,0.00048918,0.0,0 STARLINK-5073,1 55427U 23014AN  23044.91667824  .00048918  00000-0  40636-3 0  9991,2 55427  69.9996  52.5175 0003519 265.0205 341.6989 15.69915572  2288,6737.276,91.725,361.511,356.77,0.0
55427.0,STARLINK-5073,PAYLOAD,2023-02-14 10:42:55,15.69941744,0.000203,70.002,51.0272,267.4008,92.6956,0.00017498,0.00020891,0.0,0 STARLINK-5073,1 55427U 23014AN  23045.44647882  .00020891  00000-0  17498-3 0  9992,2 55427  70.0020  51.0272 0002030 267.4008  92.6956 15.69941744  2361,6737.201,91.723,360.433,357.698,0.0
55427.0,STARLINK-5073,PAYLOAD,2023-02-14 12:14:40,15.69942686,0.000363,69.9995,50.8474,265.1201,94.958,0.00013833,0.00016466,0.0,0 STARLINK-5073,1 55427U 23014AN  23045.51018873  .00016466  00000-0  13833-3 0  9994,2 55427  69.9995  50.8474 0003630 265.1201  94.9580 15.69942686  3317,6737.198,91.723,361.509,356.617,0.0
55427.0,STARLINK-5073,PAYLOAD,2023-02-15 03:32:11,15.69921278,0.0003438,69.9994,49.0575,268.096,91.9842,9.4127e-06,9.19e-06,0.0,0 STARLINK-5073,1 55427U 23014AN  23046.14735986  .00000919  00000-0  94127-5 0  9998,2 55427  69.9994  49.0575 0003438 268.0960  91.9842 15.69921278  2476,6737.259,91.724,361.44,356.808,0.0
55427.0,STARLINK-5073,PAYLOAD,2023-02-15 08:07:26,15.69937599,0.0003553,69.9993,48.5199,265.7898,94.2892,6.7443e-05,7.909e-05,0.0,0 STARLINK-5073,1 55427U 23014AN  23046.33850586  .00007909  00000-0  67443-4 0  9999,2 55427  69.9993  48.5199 0003553 265.7898  94.2892 15.69937599  2501,6737.213,91.723,361.471,356.684,0.0
55427.0,STARLINK-5073,PAYLOAD,2023-02-15 09:39:12,15.69926688,0.0003355,69.9993,48.3409,271.9168,88.1644,2.6611e-05,2.988e-05,0.0,0 STARLINK-5073,1 55427U 23014AN  23046.40222591  .00002988  00000-0  26611-4 0  9990,2 55427  69.9993  48.3409 0003355 271.9168  88.1644 15.69926688  2517,6737.244,91.724,361.369,356.848,0.0
55427.0,STARLINK-5073,PAYLOAD,2023-02-15 12:42:42,15.69934966,0.0003121,69.9997,47.9841,272.4936,87.5903,5.5209e-05,6.434e-05,0.0,0 STARLINK-5073,1 55427U 23014AN  23046.52965777  .00006434  00000-0  55209-4 0  9998,2 55427  69.9997  47.9841 0003121 272.4936  87.5903 15.69934966  3471,6737.22,91.724,361.188,356.982,0.0
55427.0,STARLINK-5073,PAYLOAD,2023-02-15 18:49:42,15.6994366,0.0003471,69.9996,47.267,269.3953,90.6845,0.00011589,0.00013756,0.0,0 STARLINK-5073,1 55427U 23014AN  23046.78452068  .00013756  00000-0  11589-3 0  9997,2 55427  69.9996  47.2670 0003471 269.3953  90.6845 15.69943660  2576,6737.195,91.723,361.399,356.722,0.0
55427.0,STARLINK-5073,PAYLOAD,2023-02-15 20:21:27,15.69930628,0.000341,69.9995,47.0871,270.267,89.8135,4.0949e-05,4.715e-05,0.0,0 STARLINK-5073,1 55427U 23014AN  23046.84823930  .00004715  00000-0  40949-4 0  9992,2 55427  69.9995  47.0871 0003410 270.2670  89.8135 15.69930628  3524,6737.232,91.724,361.395,356.8,0.0
55427.0,STARLINK-5073,PAYLOAD,2023-02-16 10:07:14,15.69909497,0.0003375,69.9981,45.4743,271.4642,88.6167,-1.9825e-05,-2.594e-05,0.0,0 STARLINK-5073,1 55427U 23014AN  23047.42169882 -.00002594  00000-0 -19825-4 0  9990,2 55427  69.9981  45.4743 0003375 271.4642  88.6167 15.69909497  2678,6737.293,91.725,361.432,356.884,0.0
55427.0,STARLINK-5073,PAYLOAD,2023-02-16 14:42:30,15.6990142,0.0003192,69.9979,44.9364,276.4931,83.5901,-3.6663e-05,-4.614e-05,0.0,0 STARLINK-5073,1 55427U 23014AN  23047.61285425 -.00004614  00000-0 -36663-4 0  9997,2 55427  69.9979  44.9364 0003192 276.4931  83.5901 15.69901420  3647,6737.316,91.726,361.332,357.03,0.0
55427.0,STARLINK-5073,PAYLOAD,2023-02-16 19:17:45,15.69921362,0.0003253,69.998,44.399,264.3605,95.722,1.6688e-06,-1.2e-07,0.0,0 STARLINK-5073,1 55427U 23014AN  23047.80399463 -.00000012  00000-0  16688-5 0  9999,2 55427  69.9980  44.3990 0003253 264.3605  95.7220 15.69921362  2735,6737.259,91.724,361.316,356.932,0.0
